ONEWEB-0159             
1 48062U 21025W   25239.45014556  .00000375  00000+0  99246-3 0  9998
2 48062  87.9010  18.5488 0001743 104.9779 255.1544 13.13469496215047
ONEWEB-0164             
1 48063U 21025X   25239.43151583  .00000037  00000+0  67548-4 0  9995
2 48063  87.9010  18.5616 0001773  95.0246 265.1086 13.13469121215028
ONEWEB-0167             
1 48064U 21025Y   25239.45945200  .00000430  00000+0  11424-2 0  9992
2 48064  87.9013  18.5906 0000946  98.3786 261.7451 13.13470551215016
ONEWEB-0166             
1 48065U 21025Z   25239.10141279 -.00000193  00000+0 -56392-3 0  9991
2 48065  87.9005  18.6113 0001857 101.9256 258.2082 13.13468781215040
ONEWEB-0151             
1 48066U 21025AA  25239.63636118 -.00000231  00000+0 -66785-3 0  9991
2 48066  87.9009  18.5298 0001584  94.7398 265.3912 13.13469725215052
ONEWEB-0170             
1 48067U 21025AB  25239.41627919 -.00000238  00000+0 -68700-3 0  9993
2 48067  87.9011  18.5797 0001654  81.1442 278.9874 13.13468795214982
ONEWEB-0168             
1 48068U 21025AC  25239.62958424  .00000042  00000+0  80156-4 0  9996
2 48068  87.9011  18.5187 0001692 102.8495 257.2823 13.13468803215027
ONEWEB-0173             
1 48069U 21025AD  25239.62112328  .00000288  00000+0  75466-3 0  9991
2 48069  87.9011  18.5285 0001403 106.9939 253.1344 13.13469826215260
